CSS (TIANHE)            
1 48274U 21035A   23362.45832607  .00039913  00000+0  40670-3 0  9991
2 48274  41.4715  52.2916 0006076  81.5540 278.5988 15.64322940152210
